000
SAUS70 KWBC 171700 RRC
MTRSJC
METAR KSJC 171653Z VRB03KT 10SM FEW140 17/07 A2995 RMK AO2 SLP142
T01720067
